norad_id,name,regime,epoch,line1,line2,inclination,eccentricity,mean_motion,raan,arg_pericenter,mean_anomaly
20083,RADUGA 1-1,EGO,17293.01761330,1 20083U 89048A   17293.01761330 -.00000224 +00000-0 +00000-0 0 0001\,2 20083 015.3754 001.2717 0015104 066.4858 284.1889 00.9870938110005,15.3754,0.0015104,0.98709381,1.2717,66.4858,284.1889
20083,RADUGA 1-1,EGO,17294.09181863,1 20083U 89048A   17294.09181863 -.00000204  00000-0  00000+0 0    99\,2 20083  15.3752   1.2609 0015086  66.3980 306.0124  0.98708998100058,15.3752,0.0015086,0.98708998,1.2609,66.398,306.0124
20083,RADUGA 1-1,EGO,17294.27177635,1 20083U 89048A   17294.27177635 -.00000200 +00000-0 +00000-0 0 0001\,2 20083 015.3752 001.2591 0015079 066.3837 009.9773 00.9870893210007,15.3752,0.0015079,0.98708932,1.2591,66.3837,9.9773
20083,RADUGA 1-1,EGO,17295.32453715,1 20083U 89048A   17295.32453715 -.00000177 +00000-0 +00000-0 0 0001\,2 20083 015.3750 001.2485 0015069 066.2878 024.1863 00.9870853710008,15.375,0.0015069,0.98708537,1.2485,66.2878,24.1863
20083,RADUGA 1-1,EGO,17296.13893635,1 20083U 89048A   17296.13893635 -.00000158  00000-0  00000+0 0   103\,2 20083  15.3748   1.2403 0015064  66.1989 313.6825  0.98708245100077,15.3748,0.0015064,0.98708245,1.2403,66.1989,313.6825
20083,RADUGA 1-1,EGO,17296.36684163,1 20083U 89048A   17296.36684163 -.00000152 +00000-0 +00000-0 0 0001\,2 20083 015.3748 001.2380 0015052 066.1627 034.7072 00.9870815010009,15.3748,0.0015052,0.9870815,1.238,66.1627,34.7072
20083,RADUGA 1-1,EGO,17297.35754948,1 20083U 89048A   17297.35754948 -.00000128 +00000-0 +00000-0 0 0001\,2 20083 015.3746 001.2281 0015051 066.0695 026.8598 00.9870780910010,15.3746,0.0015051,0.98707809,1.2281,66.0695,26.8598
20083,RADUGA 1-1,EGO,17298.60813191,1 20083U 89048A   17298.60813191 -.00000096  00000-0  00000+0 0   118\,2 20083  15.3743   1.2156 0015049  65.9392 111.3966  0.98707396100104,15.3743,0.0015049,0.98707396,1.2156,65.9392,111.3966
20083,RADUGA 1-1,EGO,17299.09565734,1 20083U 89048A   17299.09565734 -.00000084 +00000-0 +00000-0 0 0001\,2 20083 015.3742 001.2107 0015051 065.8921 284.6900 00.9870725510011,15.3742,0.0015051,0.98707255,1.2107,65.8921,284.69
20083,RADUGA 1-1,EGO,17300.13313457,1 20083U 89048A   17300.13313457 -.00000059 +00000-0 +00000-0 0 0001\,2 20083 015.3740 001.2002 0015057 065.8119 293.4464 00.9870699110012,15.374,0.0015057,0.98706991,1.2002,65.8119,293.4464
20083,RADUGA 1-1,EGO,17301.08602501,1 20083U 89048A   17301.08602501 -.00000039  00000-0  00000+0 0   124\,2 20083  15.3738   1.1907 0015066  65.7491 272.1260  0.98706799100129,15.3738,0.0015066,0.98706799,1.1907,65.7491,272.126
20083,RADUGA 1-1,EGO,17302.34296316,1 20083U 89048A   17302.34296316 -.00000015 +00000-0 +00000-0 0 0001\,2 20083 015.3736 001.1780 0015083 065.6609 358.8763 00.9870663610015,15.3736,0.0015083,0.98706636,1.178,65.6609,358.8763
20083,RADUGA 1-1,EGO,17303.18035319,1 20083U 89048A   17303.18035319 -.00000002  00000-0  00000+0 0   135\,2 20083  15.3734   1.1696 0015090  65.6272 296.4822  0.98706577100142,15.3734,0.001509,0.98706577,1.1696,65.6272,296.4822
20083,RADUGA 1-1,EGO,17303.63124176,1 20083U 89048A   17303.63124176 +.00000004 +00000-0 +00000-0 0 0001\,2 20083 015.3733 001.1650 0015086 065.5422 096.7925 00.9870654510016,15.3733,0.0015086,0.98706545,1.165,65.5422,96.7925
20083,RADUGA 1-1,EGO,17304.54669175,1 20083U 89048A   17304.54669175 +.00000013 +00000-0 +00000-0 0 0001\,2 20083 015.3731 001.1558 0015101 065.5264 062.1195 00.9870656210017,15.3731,0.0015101,0.98706562,1.1558,65.5264,62.1195
20083,RADUGA 1-1,EGO,17306.22340979,1 20083U 89048A   17306.22340979 +.00000020 +00000-0 +00000-0 0 0014\,2 20083 015.3728 001.1389 0015113 065.5398 297.9396 00.9870673610017,15.3728,0.0015113,0.98706736,1.1389,65.5398,297.9396
20083,RADUGA 1-1,EGO,17307.22622300,1 20083U 89048A   17307.22622300 +.00000017 +00000-0 +00000-0 0 0001\,2 20083 015.3726 001.1288 0015123 065.5546 294.2820 00.9870692210019,15.3726,0.0015123,0.98706922,1.1288,65.5546,294.282
20083,RADUGA 1-1,EGO,17310.26438310,1 20083U 89048A   17310.26438310 -.00000023  00000-0  00000+0 0   155\,2 20083  15.3720   1.0982 0015124  65.6256 293.8516  0.98707861100210,15.372,0.0015124,0.98707861,1.0982,65.6256,293.8516
20083,RADUGA 1-1,EGO,17312.43843133,1 20083U 89048A   17312.43843133 -.00000075  00000-0  00000+0 0   167\,2 20083  15.3715   1.0762 0015107  65.7270 346.3264  0.98708712100230,15.3715,0.0015107,0.98708712,1.0762,65.727,346.3264
20083,RADUGA 1-1,EGO,17313.40356653,1 20083U 89048A   17313.40356653 -.00000102 +00000-0 +00000-0 0 0001\,2 20083 015.3713 001.0665 0015094 065.7563 329.2723 00.9870910010026,15.3713,0.0015094,0.987091,1.0665,65.7563,329.2723
20083,RADUGA 1-1,EGO,17314.38650821,1 20083U 89048A   17314.38650821 -.00000131 +00000-0 +00000-0 0 0001\,2 20083 015.3711 001.0565 0015076 065.7579 318.5751 00.9870948910027,15.3711,0.0015076,0.98709489,1.0565,65.7579,318.5751
20083,RADUGA 1-1,EGO,17314.72881354,1 20083U 89048A   17314.72881354 -.00000141  00000-0  00000+0 0   173\,2 20083  15.3710   1.0531 0015065  65.7439  80.2334  0.98709619100261,15.371,0.0015065,0.98709619,1.0531,65.7439,80.2334
20083,RADUGA 1-1,EGO,17315.37138073,1 20083U 89048A   17315.37138073 -.00000159 +00000-0 +00000-0 0 0001\,2 20083 015.3709 001.0466 0015055 065.7221 308.6030 00.9870985510028,15.3709,0.0015055,0.98709855,1.0466,65.7221,308.603
20083,RADUGA 1-1,EGO,17316.36377595,1 20083U 89048A   17316.36377595 -.00000187 +00000-0 +00000-0 0 0001\,2 20083 015.3707 001.0367 0015035 065.6897 301.3017 00.9871017910029,15.3707,0.0015035,0.98710179,1.0367,65.6897,301.3017
20083,RADUGA 1-1,EGO,17317.34610863,1 20083U 89048A   17317.34610863 -.00000212  00000-0  00000+0 0   189\,2 20083  15.3704   1.0268 0015014  65.6283 290.4544  0.98710449100284,15.3704,0.0015014,0.98710449,1.0268,65.6283,290.4544
20083,RADUGA 1-1,EGO,17317.67015128,1 20083U 89048A   17317.67015128 -.00000220 +00000-0 +00000-0 0 0001\,2 20083 015.3704 001.0236 0014997 065.6001 045.6378 00.9871052210030,15.3704,0.0014997,0.98710522,1.0236,65.6001,45.6378
20083,RADUGA 1-1,EGO,17318.42305616,1 20083U 89048A   17318.42305616 -.00000236 +00000-0 +00000-0 0 0001\,2 20083 015.3702 001.0161 0014990 065.5470 313.2515 00.9871067210031,15.3702,0.001499,0.98710672,1.0161,65.547,313.2515
20083,RADUGA 1-1,EGO,17319.38868851,1 20083U 89048A   17319.38868851 -.00000253  00000-0  00000+0 0   193\,2 20083  15.3700   1.0064 0014976  65.4719 296.4845  0.98710791100305,15.37,0.0014976,0.98710791,1.0064,65.4719,296.4845
20083,RADUGA 1-1,EGO,17320.38938328,1 20083U 89048A   17320.38938328 -.00000265 +00000-0 +00000-0 0 0001\,2 20083 015.3698 000.9964 0014960 065.3483 292.2265 00.9871083210032,15.3698,0.001496,0.98710832,0.9964,65.3483,292.2265
20083,RADUGA 1-1,EGO,17321.41160562,1 20083U 89048A   17321.41160562 -.00000272  00000-0  00000+0 0   229\,2 20083  15.3695   0.9862 0014950  65.2384 295.6050  0.98710779100327,15.3695,0.001495,0.98710779,0.9862,65.2384,295.605
20083,RADUGA 1-1,EGO,17322.48427453,1 20083U 89048A   17322.48427453 -.00000273 +00000-0 +00000-0 0 0001\,2 20083 015.3693 000.9755 0014941 065.1177 316.9213 00.9871062210035,15.3693,0.0014941,0.98710622,0.9755,65.1177,316.9213
20083,RADUGA 1-1,EGO,17323.41543459,1 20083U 89048A   17323.41543459 -.00000268  00000-0  00000+0 0   237\,2 20083  15.3691   0.9663 0014939  64.9997 287.9462  0.98710409100348,15.3691,0.0014939,0.98710409,0.9663,64.9997,287.9462
20083,RADUGA 1-1,EGO,17323.62968922,1 20083U 89048A   17323.62968922 -.00000266 +00000-0 +00000-0 0 0001\,2 20083 015.3690 000.9641 0014937 064.9923 004.0932 00.9871034710036,15.369,0.0014937,0.98710347,0.9641,64.9923,4.0932
20083,RADUGA 1-1,EGO,17324.47823675,1 20083U 89048A   17324.47823675 -.00000256 +00000-0 +00000-0 0 0001\,2 20083 015.3688 000.9557 0014940 064.8819 305.7512 00.9871007310037,15.3688,0.001494,0.98710073,0.9557,64.8819,305.7512
20083,RADUGA 1-1,EGO,17325.47262648,1 20083U 89048A   17325.47262648 -.00000238  00000-0  00000+0 0   241\,2 20083  15.3686   0.9457 0014945  64.7690 299.2384  0.98709691100360,15.3686,0.0014945,0.98709691,0.9457,64.769,299.2384
20083,RADUGA 1-1,EGO,17326.59859140,1 20083U 89048A   17326.59859140 -.00000214 +00000-0 +00000-0 0 0001\,2 20083 015.3683 000.9345 0014957 064.6674 339.4702 00.9870919810039,15.3683,0.0014957,0.98709198,0.9345,64.6674,339.4702
20083,RADUGA 1-1,EGO,17327.45841810,1 20083U 89048A   17327.45841810 -.00000191 +00000-0 +00000-0 0 0001\,2 20083 015.3681 000.9259 0014967 064.5943 285.0953 00.9870878310039,15.3681,0.0014967,0.98708783,0.9259,64.5943,285.0953
20083,RADUGA 1-1,EGO,17327.52840152,1 20083U 89048A   17327.52840152 -.00000189  00000-0  00000+0 0   257\,2 20083  15.3681   0.9252 0014969  64.5829 309.9763  0.98708751100384,15.3681,0.0014969,0.98708751,0.9252,64.5829,309.9763
20083,RADUGA 1-1,EGO,17328.49559882,1 20083U 89048A   17328.49559882 -.00000161 +00000-0 +00000-0 0 0001\,2 20083 015.3678 000.9156 0014983 064.5057 293.7599 00.9870827810040,15.3678,0.0014983,0.98708278,0.9156,64.5057,293.7599
20083,RADUGA 1-1,EGO,17328.68872977,1 20083U 89048A   17328.68872977 -.00000155 +00000-0 +00000-0 0 0001\,2 20083 015.3678 000.9136 0014989 064.4801 002.4171 00.9870818910041,15.3678,0.0014989,0.98708189,0.9136,64.4801,2.4171
20083,RADUGA 1-1,EGO,17329.52336572,1 20083U 89048A   17329.52336572 -.00000130 +00000-0 +00000-0 0 0001\,2 20083 015.3676 000.9053 0015008 064.4767 299.0181 00.9870779210042,15.3676,0.0015008,0.98707792,0.9053,64.4767,299.0181
20083,RADUGA 1-1,EGO,17330.51605486,1 20083U 89048A   17330.51605486 -.00000099  00000-0  00000+0 0   260\,2 20083  15.3673   0.8954 0015028  64.4301 291.8265  0.98707336100412,15.3673,0.0015028,0.98707336,0.8954,64.4301,291.8265
20083,RADUGA 1-1,EGO,17330.88452392,1 20083U 89048A   17330.88452392 -.00000088 +00000-0 +00000-0 0 0001\,2 20083 015.3672 000.8917 0015043 064.4146 062.7809 00.9870718610043,15.3672,0.0015043,0.98707186,0.8917,64.4146,62.7809
